NORAD_CAT_ID,OBJECT_NAME,OBJECT_TYPE,EPOCH,MEAN_MOTION,ECCENTRICITY,INCLINATION,RA_OF_ASC_NODE,ARG_OF_PERICENTER,MEAN_ANOMALY,BSTAR,MEAN_MOTION_DOT,MEAN_MOTION_DDOT,TLE_LINE0,TLE_LINE1,TLE_LINE2,SEMIMAJOR_AXIS,PERIOD,APOGEE,PERIGEE,DECAYED
55656.0,STARLINK-5326,PAYLOAD,2024-05-06 14:30:50,14.98340801,0.0003158,69.9993,78.857,270.1725,89.9072,0.00029133,3.386e-05,0.0,0 STARLINK-5326,1 55656U 23021AE  24127.60474770  .00003386  00000-0  29133-3 0  9997,2 55656  69.9993  78.8570 0003158 270.1725  89.9072 14.98340801 68120,6950.159,96.106,574.219,569.83,0.0
55656.0,STARLINK-5326,PAYLOAD,2024-05-06 22:31:30,14.98338032,0.0003043,69.9996,78.0159,269.5976,90.4834,0.00015147,1.715e-05,0.0,0 STARLINK-5326,1 55656U 23021AE  24127.93855064  .00001715  00000-0  15147-3 0  9996,2 55656  69.9996  78.0159 0003043 269.5976  90.4834 14.98338032 68172,6950.168,96.106,574.148,569.918,0.0
55656.0,STARLINK-5326,PAYLOAD,2024-05-07 04:56:02,14.9834366,0.0002993,69.9996,77.3424,268.7796,91.302,0.00020284,2.329e-05,0.0,0 STARLINK-5326,1 55656U 23021AE  24128.20558533  .00002329  00000-0  20284-3 0  9998,2 55656  69.9996  77.3424 0002993 268.7796  91.3020 14.98343660 67914,6950.151,96.106,574.096,569.935,0.0
55656.0,STARLINK-5326,PAYLOAD,2024-05-07 06:32:10,14.983448,0.0002994,69.9996,77.1741,268.8313,91.2503,0.00021332,2.454e-05,0.0,0 STARLINK-5326,1 55656U 23021AE  24128.27234404  .00002454  00000-0  21332-3 0  9997,2 55656  69.9996  77.1741 0002994 268.8313  91.2503 14.98344800 68228,6950.147,96.106,574.093,569.931,0.0
55656.0,STARLINK-5326,PAYLOAD,2024-05-07 20:57:24,14.98330137,0.0002506,70.0009,75.6599,270.5452,89.542,-3.3509e-06,-1.33e-06,0.0,0 STARLINK-5326,1 55656U 23021AE  24128.87319467 -.00000133  00000-0 -33509-5 0  9991,2 55656  70.0009  75.6599 0002506 270.5452  89.5420 14.98330137 68016,6950.192,96.107,573.799,570.316,0.0
55656.0,STARLINK-5326,PAYLOAD,2024-05-07 22:33:31,14.98330111,0.0002413,70.0016,75.4932,254.0351,106.0542,1.3243e-05,6.5e-07,0.0,0 STARLINK-5326,1 55656U 23021AE  24128.93995277  .00000065  00000-0  13243-4 0  9991,2 55656  70.0016  75.4932 0002413 254.0351 106.0542 14.98330111 68321,6950.193,96.107,573.735,570.38,0.0
55656.0,STARLINK-5326,PAYLOAD,2024-05-08 06:34:12,14.98325826,0.0002691,70.0005,74.6496,269.6909,90.3941,-8.8611e-05,-1.15e-05,0.0,0 STARLINK-5326,1 55656U 23021AE  24129.27375867 -.00001150  00000-0 -88611-4 0  9995,2 55656  70.0005  74.6496 0002691 269.6909  90.3941 14.98325826 68374,6950.206,96.107,573.941,570.2,0.0
55656.0,STARLINK-5326,PAYLOAD,2024-05-08 20:59:24,14.98335132,0.0002764,70.0003,73.1347,273.141,86.9433,1.211e-05,5.2e-07,0.0,0 STARLINK-5326,1 55656U 23021AE  24129.87458840  .00000052  00000-0  12110-4 0  9993,2 55656  70.0003  73.1347 0002764 273.1410  86.9433 14.98335132 68164,6950.177,96.107,573.963,570.121,0.0
55656.0,STARLINK-5326,PAYLOAD,2024-05-08 22:35:32,14.98335466,0.0002766,70.0003,72.9664,273.1134,86.9709,1.5954e-05,9.7e-07,0.0,0 STARLINK-5326,1 55656U 23021AE  24129.94134788  .00000097  00000-0  15954-4 0  9991,2 55656  70.0003  72.9664 0002766 273.1134  86.9709 14.98335466 68478,6950.176,96.107,573.963,570.119,0.0
55656.0,STARLINK-5326,PAYLOAD,2024-05-09 06:36:12,14.98342096,0.0002884,70.0,72.1252,269.6071,90.4758,7.9612e-05,8.57e-06,0.0,0 STARLINK-5326,1 55656U 23021AE  24130.27514113  .00000857  00000-0  79612-4 0  9998,2 55656  70.0000  72.1252 0002884 269.6071  90.4758 14.98342096 68225,6950.155,96.106,574.025,570.016,0.0
55656.0,STARLINK-5326,PAYLOAD,2024-05-09 13:00:44,14.98335764,0.0002393,70.0013,71.4514,273.0156,87.0729,8.7515e-06,1.2e-07,0.0,0 STARLINK-5326,1 55656U 23021AE  24130.54218739  .00000012  00000-0  87515-5 0  9998,2 55656  70.0013  71.4514 0002393 273.0156  87.0729 14.98335764 68561,6950.175,96.107,573.703,570.377,0.0
55656.0,STARLINK-5326,PAYLOAD,2024-05-09 21:01:25,14.9832514,0.0002836,70.0012,70.6099,275.334,84.7495,0.00025723,2.977e-05,0.0,0 STARLINK-5326,1 55656U 23021AE  24130.87598800  .00002977  00000-0  25723-3 0  9997,2 55656  70.0012  70.6099 0002836 275.3340  84.7495 14.98325140 68315,6950.208,96.107,574.044,570.102,0.0
55656.0,STARLINK-5326,PAYLOAD,2024-05-09 22:37:33,14.98326952,0.0002716,70.0005,70.4427,266.4116,93.6732,0.00015073,1.706e-05,0.0,0 STARLINK-5326,1 55656U 23021AE  24130.94274975  .00001706  00000-0  15073-3 0  9995,2 55656  70.0005  70.4427 0002716 266.4116  93.6732 14.98326952 68628,6950.202,96.107,573.955,570.18,0.0
55656.0,STARLINK-5326,PAYLOAD,2024-05-10 13:02:46,14.98335606,0.0002645,70.0013,68.9257,274.3892,85.6965,-7.6672e-06,-1.84e-06,0.0,0 STARLINK-5326,1 55656U 23021AE  24131.54358921 -.00000184  00000-0 -76672-5 0  9991,2 55656  70.0013  68.9257 0002645 274.3892  85.6965 14.98335606 68715,6950.176,96.107,573.879,570.202,0.0
55656.0,STARLINK-5326,PAYLOAD,2024-05-10 21:03:26,14.98333653,0.0002664,70.0012,68.0855,266.1527,93.9328,3.9511e-05,3.79e-06,0.0,0 STARLINK-5326,1 55656U 23021AE  24131.87738913  .00000379  00000-0  39511-4 0  9994,2 55656  70.0012  68.0855 0002664 266.1527  93.9328 14.98333653 68461,6950.182,96.107,573.898,570.195,0.0
55656.0,STARLINK-5326,PAYLOAD,2024-05-10 22:39:34,14.98334181,0.0002654,70.0012,67.9171,266.6008,93.4847,4.4568e-05,4.39e-06,0.0,0 STARLINK-5326,1 55656U 23021AE  24131.94414854  .00000439  00000-0  44568-4 0  9992,2 55656  70.0012  67.9171 0002654 266.6008  93.4847 14.98334181 68770,6950.18,96.107,573.89,570.2,0.0
55656.0,STARLINK-5326,PAYLOAD,2024-05-11 05:04:04,14.98355876,0.00023,70.0021,67.2434,255.7684,104.322,0.00037049,4.333e-05,0.0,0 STARLINK-5326,1 55656U 23021AE  24132.21116745  .00004333  00000-0  37049-3 0  9993,2 55656  70.0021  67.2434 0002300 255.7684 104.3220 14.98355876 68515,6950.113,96.105,573.576,570.379,0.0
55656.0,STARLINK-5326,PAYLOAD,2024-05-11 13:04:43,14.98368058,0.0003208,70.0015,66.4005,263.0291,97.0504,0.00044193,5.189e-05,0.0,0 STARLINK-5326,1 55656U 23021AE  24132.54494814  .00005189  00000-0  44193-3 0  9993,2 55656  70.0015  66.4005 0003208 263.0291  97.0504 14.98368058 68561,6950.075,96.105,574.17,569.711,0.0
55656.0,STARLINK-5326,PAYLOAD,2024-05-11 21:05:26,14.98334547,0.0002748,70.0007,65.5607,259.3033,100.7816,6.1936e-05,6.46e-06,0.0,0 STARLINK-5326,1 55656U 23021AE  24132.87877575  .00000646  00000-0  61936-4 0  9996,2 55656  70.0007  65.5607 0002748 259.3033 100.7816 14.98334547 68610,6950.179,96.107,573.954,570.134,0.0
55656.0,STARLINK-5326,PAYLOAD,2024-05-11 22:41:36,14.9828506,0.0003371,70.0018,65.3925,282.2167,77.8615,-0.00095172,-0.00011417,0.0,0 STARLINK-5326,1 55656U 23021AE  24132.94556071 -.00011417  00000-0 -95172-3 0  9997,2 55656  70.0018  65.3925 0003371 282.2167  77.8615 14.98285060 68929,6950.332,96.11,574.54,569.854,0.0
55656.0,STARLINK-5326,PAYLOAD,2024-05-12 05:06:10,14.98255324,0.0002713,70.002,64.7188,268.9761,91.1088,-0.0014613,-0.00017452,0.0,0 STARLINK-5326,1 55656U 23021AE  24133.21262296 -.00017452  00000-0 -14613-2 0  9996,2 55656  70.0020  64.7188 0002713 268.9761  91.1088 14.98255324 68660,6950.424,96.112,574.174,570.403,0.0
55656.0,STARLINK-5326,PAYLOAD,2024-05-12 13:06:52,14.98252982,0.0002584,70.0036,63.8772,279.5164,80.5703,-0.0013078,-0.00015631,0.0,0 STARLINK-5326,1 55656U 23021AE  24133.54643789 -.00015631  00000-0 -13078-2 0  9993,2 55656  70.0036  63.8772 0002584 279.5164  80.5703 14.98252982 69010,6950.431,96.112,574.092,570.5,0.0
55656.0,STARLINK-5326,PAYLOAD,2024-05-12 21:07:30,14.9830545,0.0002556,70.004,63.0345,280.9774,79.1097,-0.00012956,-1.637e-05,0.0,0 STARLINK-5326,1 55656U 23021AE  24133.88021977 -.00001637  00000-0 -12956-3 0  9995,2 55656  70.0040  63.0345 0002556 280.9774  79.1097 14.98305450 68765,6950.269,96.109,573.91,570.357,0.0
55656.0,STARLINK-5326,PAYLOAD,2024-05-12 22:43:39,14.98305103,0.0002585,70.004,62.8663,283.0374,77.0496,-0.00010204,-1.309e-05,0.0,0 STARLINK-5326,1 55656U 23021AE  24133.94698145 -.00001309  00000-0 -10204-3 0  9999,2 55656  70.0040  62.8663 0002585 283.0374  77.0496 14.98305103 69077,6950.27,96.109,573.932,570.338,0.0
55656.0,STARLINK-5326,PAYLOAD,2024-05-13 05:08:11,14.98317023,0.0002572,70.0022,62.1955,258.5129,101.5741,-3.7835e-06,-1.38e-06,0.0,0 STARLINK-5326,1 55656U 23021AE  24134.21401700 -.00000138  00000-0 -37835-5 0  9999,2 55656  70.0022  62.1955 0002572 258.5129 101.5741 14.98317023 68816,6950.233,96.108,573.886,570.31,0.0
55656.0,STARLINK-5326,PAYLOAD,2024-05-13 13:08:51,14.98329404,0.0002825,70.0017,61.3527,272.6587,87.4248,6.3993e-05,6.71e-06,0.0,0 STARLINK-5326,1 55656U 23021AE  24134.54781407  .00000671  00000-0  63993-4 0  9993,2 55656  70.0017  61.3527 0002825 272.6587  87.4248 14.98329404 69161,6950.195,96.107,574.023,570.096,0.0
55656.0,STARLINK-5326,PAYLOAD,2024-05-14 05:10:11,14.98315408,0.000262,70.001,59.6703,277.5334,82.5527,0.00081042,9.586e-05,0.0,0 STARLINK-5326,1 55656U 23021AE  24135.21540892  .00009586  00000-0  81042-3 0  9997,2 55656  70.0010  59.6703 0002620 277.5334  82.5527 14.98315408 69263,6950.238,96.108,573.924,570.282,0.0
55656.0,STARLINK-5326,PAYLOAD,2024-05-14 22:47:39,14.98338718,0.0002678,70.0006,57.8174,276.3658,83.7196,0.0007998,9.465e-05,0.0,0 STARLINK-5326,1 55656U 23021AE  24135.94976250  .00009465  00000-0  79980-3 0  9992,2 55656  70.0006  57.8174 0002678 276.3658  83.7196 14.98338718 69375,6950.166,96.106,573.892,570.17,0.0
55656.0,STARLINK-5326,PAYLOAD,2024-05-15 05:12:08,14.98405303,0.0002107,70.0028,57.1449,265.9054,94.1864,-0.00062514,-7.558e-05,0.0,0 STARLINK-5326,1 55656U 23021AE  24136.21676639 -.00007558  00000-0 -62514-3 0  9999,2 55656  70.0028  57.1449 0002107 265.9054  94.1864 14.98405303 69113,6949.96,96.102,573.289,570.361,0.0
55656.0,STARLINK-5326,PAYLOAD,2024-05-15 21:13:31,14.98345234,0.0003115,70.0019,55.46,266.463,93.6173,-0.00021179,-2.62e-05,0.0,0 STARLINK-5326,1 55656U 23021AE  24136.88439151 -.00002620  00000-0 -21179-3 0  9995,2 55656  70.0019  55.4600 0003115 266.4630  93.6173 14.98345234 69213,6950.146,96.106,574.176,569.846,0.0
